[{"OBJECT_NAME":"STARLINK-5862","OBJECT_ID":"2023-037G","EPOCH":"2026-03-09T13:04:38.464032","MEAN_MOTION":14.98325433,"ECCENTRICITY":0.0002694,"INCLINATION":69.9974,"RA_OF_ASC_NODE":285.0172,"ARG_OF_PERICENTER":263.5503,"MEAN_ANOMALY":96.5349,"EPHEMERIS_TYPE":0,"CLASSIFICATION_TYPE":"U","NORAD_CAT_ID":55920,"ELEMENT_SET_NO":999,"REV_AT_EPOCH":16395,"BSTAR":7.6541e-5,"MEAN_MOTION_DOT":8.2e-6,"MEAN_MOTION_DDOT":0},{"OBJECT_NAME":"ICEYE-X43","OBJECT_ID":"2024-149BZ","EPOCH":"2026-03-09T04:59:59.268768","MEAN_MOTION":14.99329859,"ECCENTRICITY":0.0002464,"INCLINATION":97.6824,"RA_OF_ASC_NODE":146.5287,"ARG_OF_PERICENTER":60.3849,"MEAN_ANOMALY":299.762,"EPHEMERIS_TYPE":0,"CLASSIFICATION_TYPE":"U","NORAD_CAT_ID":60539,"ELEMENT_SET_NO":999,"REV_AT_EPOCH":8513,"BSTAR":0.00036685,"MEAN_MOTION_DOT":4.425e-5,"MEAN_MOTION_DDOT":0}]
