STARLINK-5862           
1 55920U 23037G   26068.54488963  .00000820  00000+0  76541-4 0  9991
2 55920  69.9974 285.0172 0002694 263.5503  96.5349 14.98325433163959
ICEYE-X43               
1 60539U 24149BZ  26068.20832487  .00004425  00000+0  36685-3 0  9994
2 60539  97.6824 146.5287 0002464  60.3849 299.7620 14.99329859 85131
